DIRECTV 14              
1 40333U 14078B   26148.05943990 -.00000118  00000+0  00000+0 0  9992
2 40333   0.0108 327.1606 0000138 235.6622 324.9524  1.00273327 41848
CBERS 4                 
1 40336U 14079A   26148.31152351  .00000138  00000+0  62739-4 0  9991
2 40336  98.3547 205.7654 0002106  86.8090 273.3337 14.35502699601103
YAOGAN-25 01A           
1 40338U 14080A   26148.28742775 -.00000045  00000+0  51060-4 0  9999
2 40338  63.3897   2.0563 0364831   9.0739 351.6647 13.45412106562984
YAOGAN-25 01B           
1 40339U 14080B   26148.27579936 -.00000076  00000+0  16452-4 0  9996
2 40339  63.3905   2.2116 0365102   8.8711 351.8537 13.45433100562954
YAOGAN-25 01C           
1 40340U 14080C   26148.29060301 -.00000074  00000+0  18953-4 0  9997
2 40340  63.3890   2.5537 0365086   9.5453 351.2268 13.45347433563073
YAMAL 401               
1 40345U 14082A   26148.31082840  .00000000  00000+0  00000+0 0  9996
2 40345   0.0165 286.1864 0000664 249.9971 271.5326  1.00272136 41713
O3B FM10                
1 40348U 14083A   26147.97043929 -.00000022  00000+0  00000+0 0  9991
2 40348   0.0428 329.8354 0002708  94.9247 295.2687  5.00115276208883
O3B FM11                
1 40349U 14083B   26147.98310065 -.00000022  00000+0  00000+0 0  9991
2 40349   0.0565 356.6191 0002792  53.7633 309.6429  5.00115601208907
O3B FM12                
1 40350U 14083C   26148.01013141 -.00000022  00000+0  00000+0 0  9993
2 40350   0.0555 356.4952 0002549  65.9971 297.5342  5.00116009208903
O3B FM9                 
1 40351U 14083D   26147.83707221 -.00000022  00000+0  00000+0 0  9992
2 40351   0.0576 356.0943 0002709  68.3767 295.5576  5.00116020209058
COSMOS 2502             
1 40358U 14086A   26148.32321601 -.00000317  00000+0 -17034-3 0  9998
2 40358  67.1540  55.6176 0008451 262.8982  97.1142 13.97819372581176
YAOGAN-26               
1 40362U 14088A   26148.27471749  .00030509  00000+0  61547-3 0  9990
2 40362  97.0641 148.9626 0006677 112.0871 248.1089 15.46456615634622
ASTRA 2G                
1 40364U 14089A   26148.22726145  .00000158  00000+0  00000+0 0  9991
2 40364   0.0603  30.0906 0005054  31.4322 294.2638  1.00273580 41763
FENGYUN 2G              
1 40367U 14090A   26147.81355985 -.00000295  00000+0  00000+0 0  9993
2 40367   5.5899  73.0592 0003389 157.4621  47.0059  1.00281836 41798
MUOS-3                  
1 40374U 15002A   26148.18655400 -.00000122  00000+0  00000+0 0  9990
2 40374   4.4832  43.4328 0051323 179.0832  74.9277  1.00272717 41388
SMAP                    
1 40376U 15003A   26148.25062749  .00000504  00000+0  10675-3 0  9995
2 40376  98.1278 155.6281 0001258  87.9640 272.1706 14.63346147604706
INMARSAT 5-F2           
1 40384U 15005A   26148.13944719 -.00000277  00000+0  00000+0 0  9994
2 40384   0.0178 343.0067 0001209 194.0443  63.7996  1.00271811 40798
COSMOS 2503             
1 40420U 15009A   26148.13961223  .00001238  00000+0  88017-4 0  9994
2 40420  97.8316 204.5212 0015188 324.5812  35.4404 15.06530489615913
ABS-3A                  
1 40424U 15010A   26147.86460675 -.00000019  00000+0  00000+0 0  9992
2 40424   0.0115 319.2034 0001838  59.5882 174.9018  1.00273006 41174
EUTELSAT 115 WEST B     
1 40425U 15010B   26148.16780856 -.00000017  00000+0  00000+0 0  9991
2 40425   0.0258 150.2035 0000260 111.0201 290.0085  1.00272780 41198
MMS 1                   
1 40482U 15011A   26148.33336806 -.00000194  00000+0  00000+0 0  9992
2 40482  71.9023 349.0742 8340115 166.9754  73.3423  0.28351660  1386
MMS 2                   
1 40483U 15011B   26148.33336806 -.00000194  00000+0  00000+0 0  9993
2 40483  71.9025 349.0764 8340890 166.9811  73.3299  0.28351674  1383
MMS 3                   
1 40484U 15011C   26148.33336806 -.00000194  00000+0  00000+0 0  9994
2 40484  71.9054 349.0809 8340091 166.9756  73.3278  0.28351624  1389
MMS 4                   
1 40485U 15011D   26148.33336806 -.00000194  00000+0  00000+0 0  9995
2 40485  71.9027 349.0761 8339695 166.9822  73.3203  0.28352579  1387
EXPRESS-AM7             
1 40505U 15012A   26148.22960146  .00000159  00000+0  00000+0 0  9997
2 40505   0.0176 310.0048 0003326 124.2500 294.2035  1.00274276 40800
NAVSTAR 73 (USA 260)    
1 40534U 15013A   26148.11832033  .00000049  00000+0  00000+0 0  9999
2 40534  53.1695 205.0077 0109159  40.0464 320.8356  2.00552564 81422
KOMPSAT-3A              
1 40536U 15014A   26148.20967394  .00028050  00000+0  42223-3 0  9990
2 40536  97.6882 138.1261 0055060 248.5049 111.0328 15.53000646618719
GSAT0203 (GALILEO 7)    
1 40544U 15017A   26147.09586325 -.00000091  00000+0  00000+0 0  9998
2 40544  56.7937 342.1700 0002186 289.8439  70.1537  1.70476149 68841
GSAT0204 (GALILEO 8)    
1 40545U 15017B   26146.76501873 -.00000091  00000+0  00000+0 0  9997
2 40545  56.8003 342.1976 0001755 263.2348  96.7664  1.70475776 31882
BEIDOU-3S IGSO-1S       
1 40549U 15019A   26146.88545025 -.00000192  00000+0  00000+0 0  9995
2 40549  49.2353 295.7149 0038103 190.1163 170.5294  1.00255071 40860
GONETS-M 11             
1 40552U 15020A   26148.28645310  .00000022  00000+0  83555-4 0  9997
2 40552  82.4886  43.3910 0017289  47.1899 313.0630 12.42876243506263
