OBJECT_NAME,OBJECT_ID,EPOCH,MEAN_MOTION,ECCENTRICITY,INCLINATION,RA_OF_ASC_NODE,ARG_OF_PERICENTER,MEAN_ANOMALY,EPHEMERIS_TYPE,CLASSIFICATION_TYPE,NORAD_CAT_ID,ELEMENT_SET_NO,REV_AT_EPOCH,BSTAR,MEAN_MOTION_DOT,MEAN_MOTION_DDOT
DIRECTV 14,2014-078B,2026-05-28T01:25:35.607360,1.00273327,.00001387,0.0108,327.1606,235.6622,324.9524,0,U,40333,999,4184,0,-.118E-5,0
CBERS 4,2014-079A,2026-05-28T07:28:35.631264,14.35502699,.00021064,98.3547,205.7654,86.8090,273.3337,0,U,40336,999,60110,.62739332E-4,.138E-5,0
YAOGAN-25 01A,2014-080A,2026-05-28T06:53:53.757600,13.45412106,.03648314,63.3897,2.0563,9.0739,351.6647,0,U,40338,999,56298,.51060094E-4,-.45E-6,0
YAOGAN-25 01B,2014-080B,2026-05-28T06:37:09.064704,13.45433100,.03651025,63.3905,2.2116,8.8711,351.8537,0,U,40339,999,56295,.16452198E-4,-.76E-6,0
YAOGAN-25 01C,2014-080C,2026-05-28T06:58:28.100064,13.45347433,.03650863,63.3890,2.5537,9.5453,351.2268,0,U,40340,999,56307,.18953364E-4,-.74E-6,0
YAMAL 401,2014-082A,2026-05-28T07:27:35.573760,1.00272136,.00006641,0.0165,286.1864,249.9971,271.5326,0,U,40345,999,4171,0,0,0
O3B FM10,2014-083A,2026-05-27T23:17:25.954656,5.00115276,.00027086,0.0428,329.8354,94.9247,295.2687,0,U,40348,999,20888,0,-.22E-6,0
O3B FM11,2014-083B,2026-05-27T23:35:39.896160,5.00115601,.0002792,0.0565,356.6191,53.7633,309.6429,0,U,40349,999,20890,0,-.22E-6,0
O3B FM12,2014-083C,2026-05-28T00:14:35.353824,5.00116009,.0002549,0.0555,356.4952,65.9971,297.5342,0,U,40350,999,20890,0,-.22E-6,0
O3B FM9,2014-083D,2026-05-27T20:05:23.038944,5.00116020,.00027094,0.0576,356.0943,68.3767,295.5576,0,U,40351,999,20905,0,-.22E-6,0
COSMOS 2502,2014-086A,2026-05-28T07:45:25.863264,13.97819372,.00084513,67.1540,55.6176,262.8982,97.1142,0,U,40358,999,58117,-.1703421E-3,-.317E-5,0
YAOGAN-26,2014-088A,2026-05-28T06:35:35.591136,15.46456615,.00066779,97.0641,148.9626,112.0871,248.1089,0,U,40362,999,63462,.61546806E-3,.30509E-3,0
ASTRA 2G,2014-089A,2026-05-28T05:27:15.389280,1.00273580,.00050544,0.0603,30.0906,31.4322,294.2638,0,U,40364,999,4176,0,.158E-5,0
FENGYUN 2G,2014-090A,2026-05-27T19:31:31.571040,1.00281836,.00033894,5.5899,73.0592,157.4621,47.0059,0,U,40367,999,4179,0,-.295E-5,0
MUOS-3,2015-002A,2026-05-28T04:28:38.265600,1.00272717,.00513237,4.4832,43.4328,179.0832,74.9277,0,U,40374,999,4138,0,-.122E-5,0
SMAP,2015-003A,2026-05-28T06:00:54.215136,14.63346147,.00012584,98.1278,155.6281,87.9640,272.1706,0,U,40376,999,60470,.1067479E-3,.504E-5,0
INMARSAT 5-F2,2015-005A,2026-05-28T03:20:48.237216,1.00271811,.00012096,0.0178,343.0067,194.0443,63.7996,0,U,40384,999,4079,0,-.277E-5,0
COSMOS 2503,2015-009A,2026-05-28T03:21:02.496672,15.06530489,.0015188,97.8316,204.5212,324.5812,35.4404,0,U,40420,999,61591,.88016724E-4,.1238E-4,0
ABS-3A,2015-010A,2026-05-27T20:45:02.023200,1.00273006,.0001838,0.0115,319.2034,59.5882,174.9018,0,U,40424,999,4117,0,-.19E-6,0
EUTELSAT 115 WEST B,2015-010B,2026-05-28T04:01:38.659584,1.00272780,.00002602,0.0258,150.2035,111.0201,290.0085,0,U,40425,999,4119,0,-.17E-6,0
MMS 1,2015-011A,2026-05-28T08:00:03.000384,0.28351660,.83401155,71.9023,349.0742,166.9754,73.3423,0,U,40482,999,138,0,-.194E-5,0
MMS 2,2015-011B,2026-05-28T08:00:03.000384,0.28351674,.83408901,71.9025,349.0764,166.9811,73.3299,0,U,40483,999,138,0,-.194E-5,0
MMS 3,2015-011C,2026-05-28T08:00:03.000384,0.28351624,.83400919,71.9054,349.0809,166.9756,73.3278,0,U,40484,999,138,0,-.194E-5,0
MMS 4,2015-011D,2026-05-28T08:00:03.000384,0.28352579,.83396958,71.9027,349.0761,166.9822,73.3203,0,U,40485,999,138,0,-.194E-5,0
EXPRESS-AM7,2015-012A,2026-05-28T05:30:37.566144,1.00274276,.00033269,0.0176,310.0048,124.2500,294.2035,0,U,40505,999,4080,0,.159E-5,0
NAVSTAR 73 (USA 260),2015-013A,2026-05-28T02:50:22.876512,2.00552564,.01091599,53.1695,205.0077,40.0464,320.8356,0,U,40534,999,8142,0,.49E-6,0
KOMPSAT-3A,2015-014A,2026-05-28T05:01:55.828416,15.53000646,.00550603,97.6882,138.1261,248.5049,111.0328,0,U,40536,999,61871,.42222903E-3,.2805E-3,0
GSAT0203 (GALILEO 7),2015-017A,2026-05-27T02:18:02.584800,1.70476149,.00021869,56.7937,342.1700,289.8439,70.1537,0,U,40544,999,6884,0,-.91E-6,0
GSAT0204 (GALILEO 8),2015-017B,2026-05-26T18:21:37.618272,1.70475776,.00017555,56.8003,342.1976,263.2348,96.7664,0,U,40545,999,3188,0,-.91E-6,0
BEIDOU-3S IGSO-1S,2015-019A,2026-05-26T21:15:02.901600,1.00255071,.0038103,49.2353,295.7149,190.1163,170.5294,0,U,40549,999,4086,0,-.192E-5,0
GONETS-M 11,2015-020A,2026-05-28T06:52:29.547840,12.42876243,.00172894,82.4886,43.3910,47.1899,313.0630,0,U,40552,999,50626,.83554523E-4,.22E-6,0
